[{"OBJECT_NAME":"HULIANWANG DIGUI-01","OBJECT_ID":"2024-240A","EPOCH":"2026-03-03T21:51:30.075264","MEAN_MOTION":13.24420447,"ECCENTRICITY":0.00019362,"INCLINATION":86.5028,"RA_OF_ASC_NODE":18.7296,"ARG_OF_PERICENTER":86.3016,"MEAN_ANOMALY":273.8339,"EPHEMERIS_TYPE":0,"CLASSIFICATION_TYPE":"U","NORAD_CAT_ID":62323,"ELEMENT_SET_NO":999,"REV_AT_EPOCH":5870,"BSTAR":0.00010181069,"MEAN_MOTION_DOT":5.8e-7,"MEAN_MOTION_DDOT":0},{"OBJECT_NAME":"HULIANWANG DIGUI-02","OBJECT_ID":"2024-240B","EPOCH":"2026-03-03T22:02:14.862912","MEAN_MOTION":13.24422101,"ECCENTRICITY":0.0001854,"INCLINATION":86.5056,"RA_OF_ASC_NODE":18.8567,"ARG_OF_PERICENTER":89.9552,"MEAN_ANOMALY":270.1794,"EPHEMERIS_TYPE":0,"CLASSIFICATION_TYPE":"U","NORAD_CAT_ID":62324,"ELEMENT_SET_NO":999,"REV_AT_EPOCH":5871,"BSTAR":9.5111732e-5,"MEAN_MOTION_DOT":5.5e-7,"MEAN_MOTION_DDOT":0},{"OBJECT_NAME":"HULIANWANG DIGUI-03","OBJECT_ID":"2024-240C","EPOCH":"2026-03-03T23:29:14.724096","MEAN_MOTION":13.24422019,"ECCENTRICITY":0.00020173,"INCLINATION":86.501,"RA_OF_ASC_NODE":18.6265,"ARG_OF_PERICENTER":85.1913,"MEAN_ANOMALY":274.9451,"EPHEMERIS_TYPE":0,"CLASSIFICATION_TYPE":"U","NORAD_CAT_ID":62325,"ELEMENT_SET_NO":999,"REV_AT_EPOCH":5871,"BSTAR":0.00012958946,"MEAN_MOTION_DOT":7.0e-7,"MEAN_MOTION_DDOT":0},{"OBJECT_NAME":"HULIANWANG DIGUI-04","OBJECT_ID":"2024-240D","EPOCH":"2026-03-03T23:18:24.827616","MEAN_MOTION":13.24421707,"ECCENTRICITY":0.0002053,"INCLINATION":86.5019,"RA_OF_ASC_NODE":18.6606,"ARG_OF_PERICENTER":85.8168,"MEAN_ANOMALY":274.3201,"EPHEMERIS_TYPE":0,"CLASSIFICATION_TYPE":"U","NORAD_CAT_ID":62326,"ELEMENT_SET_NO":999,"REV_AT_EPOCH":5871,"BSTAR":0.00012630057,"MEAN_MOTION_DOT":6.9e-7,"MEAN_MOTION_DDOT":0},{"OBJECT_NAME":"HULIANWANG DIGUI-05","OBJECT_ID":"2024-240E","EPOCH":"2026-03-03T23:07:36.203808","MEAN_MOTION":13.24420896,"ECCENTRICITY":0.00020802,"INCLINATION":86.5071,"RA_OF_ASC_NODE":18.8819,"ARG_OF_PERICENTER":84.9977,"MEAN_ANOMALY":275.1394,"EPHEMERIS_TYPE":0,"CLASSIFICATION_TYPE":"U","NORAD_CAT_ID":62327,"ELEMENT_SET_NO":999,"REV_AT_EPOCH":5871,"BSTAR":9.3423866e-5,"MEAN_MOTION_DOT":5.5e-7,"MEAN_MOTION_DDOT":0},{"OBJECT_NAME":"HULIANWANG DIGUI-06","OBJECT_ID":"2024-240F","EPOCH":"2026-03-03T22:45:42.246432","MEAN_MOTION":13.24422879,"ECCENTRICITY":0.00020145,"INCLINATION":86.5009,"RA_OF_ASC_NODE":18.6067,"ARG_OF_PERICENTER":89.5764,"MEAN_ANOMALY":270.5601,"EPHEMERIS_TYPE":0,"CLASSIFICATION_TYPE":"U","NORAD_CAT_ID":62328,"ELEMENT_SET_NO":999,"REV_AT_EPOCH":5871,"BSTAR":7.3150922e-5,"MEAN_MOTION_DOT":4.6e-7,"MEAN_MOTION_DDOT":0},{"OBJECT_NAME":"HULIANWANG DIGUI-07","OBJECT_ID":"2024-240G","EPOCH":"2026-03-03T22:34:57.721440","MEAN_MOTION":13.24421049,"ECCENTRICITY":0.00020009,"INCLINATION":86.498,"RA_OF_ASC_NODE":18.4778,"ARG_OF_PERICENTER":87.7544,"MEAN_ANOMALY":272.3819,"EPHEMERIS_TYPE":0,"CLASSIFICATION_TYPE":"U","NORAD_CAT_ID":62329,"ELEMENT_SET_NO":999,"REV_AT_EPOCH":5871,"BSTAR":8.8726263e-5,"MEAN_MOTION_DOT":5.3e-7,"MEAN_MOTION_DDOT":0},{"OBJECT_NAME":"HULIANWANG DIGUI-08","OBJECT_ID":"2024-240H","EPOCH":"2026-03-03T22:56:44.899872","MEAN_MOTION":13.24420819,"ECCENTRICITY":0.00021189,"INCLINATION":86.5062,"RA_OF_ASC_NODE":18.842,"ARG_OF_PERICENTER":86.3637,"MEAN_ANOMALY":273.7739,"EPHEMERIS_TYPE":0,"CLASSIFICATION_TYPE":"U","NORAD_CAT_ID":62330,"ELEMENT_SET_NO":999,"REV_AT_EPOCH":5871,"BSTAR":7.5231674e-5,"MEAN_MOTION_DOT":4.7e-7,"MEAN_MOTION_DDOT":0},{"OBJECT_NAME":"HULIANWANG DIGUI-09","OBJECT_ID":"2024-240J","EPOCH":"2026-03-03T22:23:58.907616","MEAN_MOTION":13.24422272,"ECCENTRICITY":0.00019504,"INCLINATION":86.5029,"RA_OF_ASC_NODE":18.7453,"ARG_OF_PERICENTER":89.7458,"MEAN_ANOMALY":270.3899,"EPHEMERIS_TYPE":0,"CLASSIFICATION_TYPE":"U","NORAD_CAT_ID":62331,"ELEMENT_SET_NO":999,"REV_AT_EPOCH":5870,"BSTAR":6.3583355e-5,"MEAN_MOTION_DOT":4.2e-7,"MEAN_MOTION_DDOT":0},{"OBJECT_NAME":"HULIANWANG DIGUI-10","OBJECT_ID":"2024-240K","EPOCH":"2026-03-03T22:13:09.619392","MEAN_MOTION":13.24421614,"ECCENTRICITY":0.00019449,"INCLINATION":86.5059,"RA_OF_ASC_NODE":18.8699,"ARG_OF_PERICENTER":91.757,"MEAN_ANOMALY":268.3787,"EPHEMERIS_TYPE":0,"CLASSIFICATION_TYPE":"U","NORAD_CAT_ID":62332,"ELEMENT_SET_NO":999,"REV_AT_EPOCH":5870,"BSTAR":3.8508924e-5,"MEAN_MOTION_DOT":3.1e-7,"MEAN_MOTION_DDOT":0},{"OBJECT_NAME":"HULIANWANG DIGUI-11","OBJECT_ID":"2025-030A","EPOCH":"2026-03-03T21:48:50.397696","MEAN_MOTION":13.29337662,"ECCENTRICITY":7.506e-5,"INCLINATION":49.9993,"RA_OF_ASC_NODE":253.4324,"ARG_OF_PERICENTER":163.4725,"MEAN_ANOMALY":196.6172,"EPHEMERIS_TYPE":0,"CLASSIFICATION_TYPE":"U","NORAD_CAT_ID":62971,"ELEMENT_SET_NO":999,"REV_AT_EPOCH":5185,"BSTAR":8.2415549e-5,"MEAN_MOTION_DOT":-8.6e-7,"MEAN_MOTION_DDOT":0},{"OBJECT_NAME":"HULIANWANG DIGUI-12","OBJECT_ID":"2025-030B","EPOCH":"2026-03-03T22:00:42.580800","MEAN_MOTION":13.29339835,"ECCENTRICITY":8.742e-5,"INCLINATION":50.0008,"RA_OF_ASC_NODE":253.5218,"ARG_OF_PERICENTER":157.5166,"MEAN_ANOMALY":202.5744,"EPHEMERIS_TYPE":0,"CLASSIFICATION_TYPE":"U","NORAD_CAT_ID":62972,"ELEMENT_SET_NO":999,"REV_AT_EPOCH":5185,"BSTAR":7.3810642e-5,"MEAN_MOTION_DOT":-9.0e-7,"MEAN_MOTION_DDOT":0},{"OBJECT_NAME":"HULIANWANG DIGUI-13","OBJECT_ID":"2025-030C","EPOCH":"2026-03-03T23:25:01.350912","MEAN_MOTION":13.29337749,"ECCENTRICITY":6.957e-5,"INCLINATION":50.0012,"RA_OF_ASC_NODE":253.1774,"ARG_OF_PERICENTER":148.6927,"MEAN_ANOMALY":211.3986,"EPHEMERIS_TYPE":0,"CLASSIFICATION_TYPE":"U","NORAD_CAT_ID":62973,"ELEMENT_SET_NO":999,"REV_AT_EPOCH":5186,"BSTAR":6.8391358e-5,"MEAN_MOTION_DOT":-9.2e-7,"MEAN_MOTION_DDOT":0},{"OBJECT_NAME":"HULIANWANG DIGUI-14","OBJECT_ID":"2025-030D","EPOCH":"2026-03-03T22:49:01.247232","MEAN_MOTION":13.29337599,"ECCENTRICITY":8.007e-5,"INCLINATION":50.0017,"RA_OF_ASC_NODE":253.0652,"ARG_OF_PERICENTER":149.6028,"MEAN_ANOMALY":210.489,"EPHEMERIS_TYPE":0,"CLASSIFICATION_TYPE":"U","NORAD_CAT_ID":62974,"ELEMENT_SET_NO":999,"REV_AT_EPOCH":5186,"BSTAR":9.4801128e-5,"MEAN_MOTION_DOT":-8.0e-7,"MEAN_MOTION_DDOT":0},{"OBJECT_NAME":"HULIANWANG DIGUI-15","OBJECT_ID":"2025-030E","EPOCH":"2026-03-03T23:13:02.669664","MEAN_MOTION":13.29337753,"ECCENTRICITY":6.799e-5,"INCLINATION":50.0013,"RA_OF_ASC_NODE":253.1367,"ARG_OF_PERICENTER":156.1048,"MEAN_ANOMALY":203.9856,"EPHEMERIS_TYPE":0,"CLASSIFICATION_TYPE":"U","NORAD_CAT_ID":62975,"ELEMENT_SET_NO":999,"REV_AT_EPOCH":5186,"BSTAR":9.2408652e-5,"MEAN_MOTION_DOT":-8.1e-7,"MEAN_MOTION_DDOT":0},{"OBJECT_NAME":"HULIANWANG DIGUI-16","OBJECT_ID":"2025-030F","EPOCH":"2026-03-03T22:36:55.226304","MEAN_MOTION":13.29338301,"ECCENTRICITY":7.902e-5,"INCLINATION":50.0034,"RA_OF_ASC_NODE":253.0742,"ARG_OF_PERICENTER":146.0927,"MEAN_ANOMALY":213.9996,"EPHEMERIS_TYPE":0,"CLASSIFICATION_TYPE":"U","NORAD_CAT_ID":62976,"ELEMENT_SET_NO":999,"REV_AT_EPOCH":5186,"BSTAR":7.7778598e-5,"MEAN_MOTION_DOT":-8.8e-7,"MEAN_MOTION_DDOT":0}]
