HULIANWANG DIGUI-01     
1 62323U 24240A   26062.91076476  .00000058  00000+0  10181-3 0  9990
2 62323  86.5028  18.7296 0001936  86.3016 273.8339 13.24420447 58709
HULIANWANG DIGUI-02     
1 62324U 24240B   26062.91822758  .00000055  00000+0  95112-4 0  9998
2 62324  86.5056  18.8567 0001854  89.9552 270.1794 13.24422101 58711
HULIANWANG DIGUI-03     
1 62325U 24240C   26062.97864264  .00000070  00000+0  12959-3 0  9997
2 62325  86.5010  18.6265 0002017  85.1913 274.9451 13.24422019 58716
HULIANWANG DIGUI-04     
1 62326U 24240D   26062.97112069  .00000069  00000+0  12630-3 0  9991
2 62326  86.5019  18.6606 0002053  85.8168 274.3201 13.24421707 58714
HULIANWANG DIGUI-05     
1 62327U 24240E   26062.96361347  .00000055  00000+0  93424-4 0  9992
2 62327  86.5071  18.8819 0002080  84.9977 275.1394 13.24420896 58719
HULIANWANG DIGUI-06     
1 62328U 24240F   26062.94840563  .00000046  00000+0  73151-4 0  9998
2 62328  86.5009  18.6067 0002014  89.5764 270.5601 13.24422879 58719
HULIANWANG DIGUI-07     
1 62329U 24240G   26062.94094585  .00000053  00000+0  88726-4 0  9996
2 62329  86.4980  18.4778 0002000  87.7544 272.3819 13.24421049 58714
HULIANWANG DIGUI-08     
1 62330U 24240H   26062.95607523  .00000047  00000+0  75232-4 0  9992
2 62330  86.5062  18.8420 0002118  86.3637 273.7739 13.24420819 58714
HULIANWANG DIGUI-09     
1 62331U 24240J   26062.93332069  .00000042  00000+0  63583-4 0  9992
2 62331  86.5029  18.7453 0001950  89.7458 270.3899 13.24422272 58708
HULIANWANG DIGUI-10     
1 62332U 24240K   26062.92580578  .00000031  00000+0  38509-4 0  9990
2 62332  86.5059  18.8699 0001944  91.7570 268.3787 13.24421614 58708
HULIANWANG DIGUI-11     
1 62971U 25030A   26062.90891664 -.00000086  00000+0  82416-4 0  9993
2 62971  49.9993 253.4324 0000750 163.4725 196.6172 13.29337662 51856
HULIANWANG DIGUI-12     
1 62972U 25030B   26062.91715950 -.00000090  00000+0  73811-4 0  9992
2 62972  50.0008 253.5218 0000874 157.5166 202.5744 13.29339835 51856
HULIANWANG DIGUI-13     
1 62973U 25030C   26062.97571008 -.00000092  00000+0  68391-4 0  9992
2 62973  50.0012 253.1774 0000695 148.6927 211.3986 13.29337749 51861
HULIANWANG DIGUI-14     
1 62974U 25030D   26062.95070888 -.00000080  00000+0  94801-4 0  9993
2 62974  50.0017 253.0652 0000800 149.6028 210.4890 13.29337599 51869
HULIANWANG DIGUI-15     
1 62975U 25030E   26062.96739201 -.00000081  00000+0  92409-4 0  9999
2 62975  50.0013 253.1367 0000679 156.1048 203.9856 13.29337753 51860
HULIANWANG DIGUI-16     
1 62976U 25030F   26062.94230586 -.00000088  00000+0  77779-4 0  9990
2 62976  50.0034 253.0742 0000790 146.0927 213.9996 13.29338301 51864
